OBJECT_NAME,OBJECT_ID,EPOCH,MEAN_MOTION,ECCENTRICITY,INCLINATION,RA_OF_ASC_NODE,ARG_OF_PERICENTER,MEAN_ANOMALY,EPHEMERIS_TYPE,CLASSIFICATION_TYPE,NORAD_CAT_ID,ELEMENT_SET_NO,REV_AT_EPOCH,BSTAR,MEAN_MOTION_DOT,MEAN_MOTION_DDOT
STARLINK-11734 [DTC],2025-124N,2026-06-14T07:10:50.441088,15.70912889,.000091,42.9971,166.4263,199.4286,160.6547,0,U,64329,999,5803,.18881E-2,.25002E-2,0
STARLINK-34252,2025-124P,2026-06-12T15:57:42.796224,15.27602351,.00029952,43.0090,305.5237,283.3622,76.6896,0,U,64330,999,5630,.76822132E-3,.20953E-3,0
STARLINK-34050,2025-124Q,2026-06-14T02:14:20.838336,15.27568791,.00025378,43.0057,297.3146,273.7646,86.2915,0,U,64331,999,5758,.89032489E-3,.24311E-3,0
STARLINK-33782,2025-124R,2026-06-14T01:57:41.485824,15.27583869,.00027486,43.0042,297.2226,268.1668,91.8869,0,U,64332,999,5652,.82070006E-3,.22394E-3,0
STARLINK-34207,2025-124S,2026-06-14T08:40:14.371680,15.27576497,.0002756,43.0035,295.8872,258.9636,101.0906,0,U,64333,999,5656,.6367E-3,.17298E-3,0
STARLINK-34260,2025-124T,2026-06-13T15:35:36.654720,15.27598417,.00008154,43.0054,300.0079,134.0277,226.0642,0,U,64334,999,5645,.95614671E-3,.26157E-3,0
STARLINK-33855,2025-124U,2026-06-14T01:52:08.172768,15.27613947,.00034465,42.9960,297.1918,267.2648,92.7809,0,U,64335,999,5652,.81748809E-3,.22327E-3,0
STARLINK-34223,2025-124V,2026-06-14T01:36:11.990016,15.27584445,.00013224,43.0021,293.6470,285.3054,74.7651,0,U,64336,999,5656,.10042899E-2,.2748E-3,0
STARLINK-34216,2025-124W,2026-06-14T01:31:47.405568,15.27587731,.00019868,43.0003,297.0856,273.0319,87.0305,0,U,64337,999,5652,.79467242E-3,.21675E-3,0
STARLINK-34218,2025-124X,2026-06-14T01:52:51.232800,15.27594701,.00008614,43.0032,293.7394,281.6965,78.3790,0,U,64338,999,5656,.93391619E-3,.25538E-3,0
STARLINK-34017,2025-124Y,2026-06-13T02:36:26.592768,15.27593169,.0002424,43.0058,302.8172,268.6695,91.3879,0,U,64339,999,5637,.95957666E-3,.26249E-3,0
QPS-SAR-11 (YAMATSUMI-I),2025-125A,2026-06-14T09:32:19.464000,15.01592415,.0008719,42.0057,207.1571,112.2470,247.9281,0,U,64340,999,5520,.31272E-3,.394E-4,0
STARLINK-33977,2025-126A,2026-06-14T08:36:29.202048,14.98360336,.0003765,69.9995,150.6561,263.6118,96.4613,0,U,64344,999,5637,.10689E-2,.12694E-3,0
STARLINK-34426,2025-126B,2026-06-14T08:30:15.067584,14.98333373,.0003439,69.9998,150.6361,260.2222,99.8549,0,U,64345,999,5516,.20425E-3,.2345E-4,0
STARLINK-34437,2025-126C,2026-06-14T09:12:19.406880,14.98333243,.0003845,69.9998,150.7402,264.3976,95.6745,0,U,64346,999,5516,.10082E-3,.111E-4,0
STARLINK-34407,2025-126D,2026-06-14T09:18:34.267968,14.98332824,.0004035,70.0000,150.7502,265.2151,94.8547,0,U,64347,999,5516,.6752E-4,.713E-5,0
STARLINK-34274,2025-126E,2026-06-14T09:36:21.959424,14.98332829,.0003908,69.9997,150.7995,262.8742,97.1973,0,U,64348,999,5516,.76262E-4,.817E-5,0
STARLINK-34301,2025-126F,2026-06-14T08:36:15.765120,14.98323585,.0003801,70.0003,150.6511,261.9834,98.0894,0,U,64349,999,5516,-.15718E-3,-.1968E-4,0
STARLINK-34425,2025-126G,2026-06-14T09:06:19.644192,14.98331492,.0003748,69.9998,150.7226,269.6290,90.4439,0,U,64350,999,5516,.32368E-3,.3771E-4,0
STARLINK-34389,2025-126H,2026-06-14T08:48:31.146624,14.98335005,.0003806,69.9997,150.6761,266.6633,93.4090,0,U,64351,999,5516,.32865E-3,.3831E-4,0
STARLINK-34385,2025-126J,2026-06-14T09:24:20.592864,14.98331893,.0004064,69.9999,150.7685,265.2972,94.7723,0,U,64352,999,5516,.11653E-3,.1298E-4,0
STARLINK-34431,2025-126K,2026-06-14T08:30:29.373696,14.98331883,.0002976,69.9997,150.6395,262.8189,97.2632,0,U,64353,999,5516,.24108E-4,.195E-5,0
STARLINK-34473,2025-126L,2026-06-14T08:48:16.603776,14.98345377,.0003774,69.9998,150.6819,269.1317,90.9410,0,U,64354,999,5516,.82296E-3,.9744E-4,0
STARLINK-34270,2025-126M,2026-06-14T08:54:17.669376,14.98343538,.0003708,69.9997,150.6943,264.3328,95.7408,0,U,64355,999,5636,.22286E-3,.2568E-4,0
STARLINK-34397,2025-126N,2026-06-14T09:30:21.216096,14.98332754,.0003948,69.9999,150.7803,263.3505,96.7204,0,U,64356,999,5516,.62179E-4,.649E-5,0
STARLINK-34454,2025-126P,2026-06-14T08:00:28.166112,14.98331471,.0003582,70.0001,150.9619,264.0334,96.0417,0,U,64357,999,5515,.28548E-4,.248E-5,0
STARLINK-34436,2025-126Q,2026-06-14T08:18:27.400608,14.98336094,.0003694,69.9994,150.6020,270.8730,89.2006,0,U,64358,999,5516,-.4559E-3,-.553E-4,0
STARLINK-34291,2025-126R,2026-06-14T08:42:30.600288,14.98336002,.0003291,69.9997,150.6599,262.0212,98.0574,0,U,64359,999,5516,.36587E-3,.4276E-4,0
STARLINK-34458,2025-126S,2026-06-14T08:54:33.725088,14.98336899,.0003577,69.9998,150.6911,260.4696,99.6059,0,U,64360,999,5516,.32563E-3,.3795E-4,0
STARLINK-34243,2025-126T,2026-06-14T09:00:18.149184,14.98333162,.0004007,69.9999,150.7086,266.0617,94.0084,0,U,64361,999,5516,.14155E-3,.1596E-4,0
